{
  "type": "FeatureCollection",
  "features": [
    {
      "type": "Feature",
      "properties": {
        "norad_id": 40797,
        "name": "COSMOS 2251 DEB",
        "group": "cosmos-2251-debris",
        "lat": 64.13387313034453,
        "lon": -118.51095337553174,
        "alt_km": 534.4846443099623,
        "timestamp": "2025-12-11T10:53:16.288553+00:00",
        "meta_object_name": "COSMOS 2251 DEB",
        "meta_object_id": "1993-036BWA",
        "meta_epoch": "2025-11-19T18:43:16.602528",
        "meta_mean_motion": 15.10509474,
        "meta_eccentricity": 0.00703947,
        "meta_inclination": 73.92,
        "meta_ra_of_asc_node": 143.0892,
        "meta_arg_of_pericenter": 60.6639,
        "meta_mean_anomaly": 300.156,
        "meta_ephemeris_type": 0,
        "meta_classification_type": "U",
        "meta_norad_cat_id": 40797,
        "meta_element_set_no": 999,
        "meta_rev_at_epoch": 64297,
        "meta_bstar": 0.00072810385,
        "meta_mean_motion_dot": 0.00012707,
        "meta_mean_motion_ddot": 0,
        "tle_line1": "1 40797U 93036BWA 25323.78005327  .00012707  00000+0  72810-3 0  9992",
        "tle_line2": "2 40797  73.9200 143.0892 0070394  60.6639 300.1560 15.10509474642979"
      },
      "geometry": {
        "type": "Point",
        "coordinates": [
          -118.51095337553174,
          64.13387313034453
        ]
      }
    },
    {
      "type": "Feature",
      "properties": {
        "norad_id": 40799,
        "name": "COSMOS 2251 DEB",
        "group": "cosmos-2251-debris",
        "lat": -8.601695557249812,
        "lon": -76.51621505932832,
        "alt_km": 655.3838775939257,
        "timestamp": "2025-12-11T10:53:16.288564+00:00",
        "meta_object_name": "COSMOS 2251 DEB",
        "meta_object_id": "1993-036BWC",
        "meta_epoch": "2025-12-09T01:53:34.430208",
        "meta_mean_motion": 14.96607637,
        "meta_eccentricity": 0.01188532,
        "meta_inclination": 73.9255,
        "meta_ra_of_asc_node": 105.8165,
        "meta_arg_of_pericenter": 348.6174,
        "meta_mean_anomaly": 11.2323,
        "meta_ephemeris_type": 0,
        "meta_classification_type": "U",
        "meta_norad_cat_id": 40799,
        "meta_element_set_no": 999,
        "meta_rev_at_epoch": 49922,
        "meta_bstar": 0.00041300806,
        "meta_mean_motion_dot": 5.391e-05,
        "meta_mean_motion_ddot": 0,
        "tle_line1": "1 40799U 93036BWC 25343.07887072  .00005391  00000+0  41301-3 0  9995",
        "tle_line2": "2 40799  73.9255 105.8165 0118853 348.6174  11.2323 14.96607637499224"
      },
      "geometry": {
        "type": "Point",
        "coordinates": [
          -76.51621505932832,
          -8.601695557249812
        ]
      }
    },
    {
      "type": "Feature",
      "properties": {
        "norad_id": 40802,
        "name": "COSMOS 2251 DEB",
        "group": "cosmos-2251-debris",
        "lat": -33.50503317208488,
        "lon": 144.6159860273763,
        "alt_km": 627.8324244490832,
        "timestamp": "2025-12-11T10:53:16.288575+00:00",
        "meta_object_name": "COSMOS 2251 DEB",
        "meta_object_id": "1993-036BWF",
        "meta_epoch": "2025-12-09T18:25:18.853248",
        "meta_mean_motion": 14.77560234,
        "meta_eccentricity": 0.00632236,
        "meta_inclination": 74.04,
        "meta_ra_of_asc_node": 158.8434,
        "meta_arg_of_pericenter": 258.1677,
        "meta_mean_anomaly": 101.2403,
        "meta_ephemeris_type": 0,
        "meta_classification_type": "U",
        "meta_norad_cat_id": 40802,
        "meta_element_set_no": 999,
        "meta_rev_at_epoch": 64365,
        "meta_bstar": 0.0011312786,
        "meta_mean_motion_dot": 8.327e-05,
        "meta_mean_motion_ddot": 0,
        "tle_line1": "1 40802U 93036BWF 25343.76757932  .00008327  00000+0  11313-2 0  9998",
        "tle_line2": "2 40802  74.0400 158.8434 0063223 258.1677 101.2403 14.77560234643650"
      },
      "geometry": {
        "type": "Point",
        "coordinates": [
          144.6159860273763,
          -33.50503317208488
        ]
      }
    },
    {
      "type": "Feature",
      "properties": {
        "norad_id": 40803,
        "name": "COSMOS 2251 DEB",
        "group": "cosmos-2251-debris",
        "lat": -67.6713645486341,
        "lon": 10.053575392007078,
        "alt_km": 701.8154643820835,
        "timestamp": "2025-12-11T10:53:16.288585+00:00",
        "meta_object_name": "COSMOS 2251 DEB",
        "meta_object_id": "1993-036BWG",
        "meta_epoch": "2025-12-05T22:55:29.451072",
        "meta_mean_motion": 14.51792027,
        "meta_eccentricity": 0.00362816,
        "meta_inclination": 74.0122,
        "meta_ra_of_asc_node": 64.6912,
        "meta_arg_of_pericenter": 281.8159,
        "meta_mean_anomaly": 77.8934,
        "meta_ephemeris_type": 0,
        "meta_classification_type": "U",
        "meta_norad_cat_id": 40803,
        "meta_element_set_no": 999,
        "meta_rev_at_epoch": 58654,
        "meta_bstar": 0.00062935795,
        "meta_mean_motion_dot": 2.525e-05,
        "meta_mean_motion_ddot": 0,
        "tle_line1": "1 40803U 93036BWG 25339.95520198  .00002525  00000+0  62936-3 0  9999",
        "tle_line2": "2 40803  74.0122  64.6912 0036281 281.8159  77.8934 14.51792027586549"
      },
      "geometry": {
        "type": "Point",
        "coordinates": [
          10.053575392007078,
          -67.6713645486341
        ]
      }
    },
    {
      "type": "Feature",
      "properties": {
        "norad_id": 40808,
        "name": "COSMOS 2251 DEB",
        "group": "cosmos-2251-debris",
        "lat": 49.0992822160735,
        "lon": -51.33518511014508,
        "alt_km": 660.8160366415123,
        "timestamp": "2025-12-11T10:53:16.288596+00:00",
        "meta_object_name": "COSMOS 2251 DEB",
        "meta_object_id": "1993-036BWM",
        "meta_epoch": "2025-12-10T21:54:15.844032",
        "meta_mean_motion": 14.67421347,
        "meta_eccentricity": 0.0009441,
        "meta_inclination": 74.0414,
        "meta_ra_of_asc_node": 148.9978,
        "meta_arg_of_pericenter": 185.9744,
        "meta_mean_anomaly": 325.5571,
        "meta_ephemeris_type": 0,
        "meta_classification_type": "U",
        "meta_norad_cat_id": 40808,
        "meta_element_set_no": 999,
        "meta_rev_at_epoch": 63592,
        "meta_bstar": 0.0025763,
        "meta_mean_motion_dot": 0.00014586,
        "meta_mean_motion_ddot": 0,
        "tle_line1": "1 40808U 93036BWM 25344.91268338  .00014586  00000+0  25763-2 0  9997",
        "tle_line2": "2 40808  74.0414 148.9978 0009441 185.9744 325.5571 14.67421347635926"
      },
      "geometry": {
        "type": "Point",
        "coordinates": [
          -51.33518511014508,
          49.0992822160735
        ]
      }
    },
    {
      "type": "Feature",
      "properties": {
        "norad_id": 40810,
        "name": "COSMOS 2251 DEB",
        "group": "cosmos-2251-debris",
        "lat": 73.52736415507168,
        "lon": 152.663856754648,
        "alt_km": 700.3883175720675,
        "timestamp": "2025-12-11T10:53:16.288607+00:00",
        "meta_object_name": "COSMOS 2251 DEB",
        "meta_object_id": "1993-036BWP",
        "meta_epoch": "2025-12-08T16:39:16.874784",
        "meta_mean_motion": 14.58674217,
        "meta_eccentricity": 0.00186464,
        "meta_inclination": 74.0365,
        "meta_ra_of_asc_node": 82.4401,
        "meta_arg_of_pericenter": 234.2275,
        "meta_mean_anomaly": 125.7157,
        "meta_ephemeris_type": 0,
        "meta_classification_type": "U",
        "meta_norad_cat_id": 40810,
        "meta_element_set_no": 999,
        "meta_rev_at_epoch": 61624,
        "meta_bstar": 0.0013703494,
        "meta_mean_motion_dot": 6.381e-05,
        "meta_mean_motion_ddot": 0,
        "tle_line1": "1 40810U 93036BWP 25342.69394531  .00006381  00000+0  13703-2 0  9993",
        "tle_line2": "2 40810  74.0365  82.4401 0018646 234.2275 125.7157 14.58674217616241"
      },
      "geometry": {
        "type": "Point",
        "coordinates": [
          152.663856754648,
          73.52736415507168
        ]
      }
    },
    {
      "type": "Feature",
      "properties": {
        "norad_id": 46271,
        "name": "COSMOS 2251 DEB",
        "group": "cosmos-2251-debris",
        "lat": -0.7106669562705874,
        "lon": 80.43011731220132,
        "alt_km": 750.0598968711683,
        "timestamp": "2025-12-11T10:53:16.288617+00:00",
        "meta_object_name": "COSMOS 2251 DEB",
        "meta_object_id": "1993-036BWT",
        "meta_epoch": "2025-12-10T13:23:10.525344",
        "meta_mean_motion": 14.51418765,
        "meta_eccentricity": 0.0040241,
        "meta_inclination": 74.0479,
        "meta_ra_of_asc_node": 82.3177,
        "meta_arg_of_pericenter": 204.0304,
        "meta_mean_anomaly": 155.8981,
        "meta_ephemeris_type": 0,
        "meta_classification_type": "U",
        "meta_norad_cat_id": 46271,
        "meta_element_set_no": 999,
        "meta_rev_at_epoch": 84610,
        "meta_bstar": 0.00059247,
        "meta_mean_motion_dot": 2.361e-05,
        "meta_mean_motion_ddot": 0,
        "tle_line1": "1 46271U 93036BWT 25344.55776071  .00002361  00000+0  59247-3 0  9998",
        "tle_line2": "2 46271  74.0479  82.3177 0040241 204.0304 155.8981 14.51418765846103"
      },
      "geometry": {
        "type": "Point",
        "coordinates": [
          80.43011731220132,
          -0.7106669562705874
        ]
      }
    }
  ]
}